{"type": "FeatureCollection", "features": [ {"type": "Feature", "properties": {"norad_id": 34409, "name": "COSMOS 2251 DEB", "group": "cosmos-2251-debris", "lat": 68.50568839649569, "lon": 15.340723536164658, "alt_km": 643.479448620682, "timestamp": "2025-12-01T03:58:49.145360+00:00", "meta": {"OBJECT_NAME": "COSMOS 2251 DEB", "OBJECT_ID": "1993-036RA", "EPOCH": "2025-11-30T18:33:53.955360", "MEAN_MOTION": 14.57980475, "ECCENTRICITY": 0.0079378, "INCLINATION": 74.0627, "RA_OF_ASC_NODE": 329.5642, "ARG_OF_PERICENTER": 47.182, "MEAN_ANOMALY": 129.5426, "EPHEMERIS_TYPE": 0, "CLASSIFICATION_TYPE": "U", "NORAD_CAT_ID": 34409, "ELEMENT_SET_NO": 999, "REV_AT_EPOCH": 89018, "BSTAR": 0.0002198, "MEAN_MOTION_DOT": 1.023e-05, "MEAN_MOTION_DDOT": 0, "GROUP": "cosmos-2251-debris"}, "tle": {"line1": "1 34409U 93036RA  25334.77354115  .00001023  00000+0  21980-3 0  9999", "line2": "2 34409  74.0627 329.5642 0079378  47.1820 129.5426 14.57980475890180"}}, "geometry": {"type": "Point", "coordinates": [15.340723536164658, 68.50568839649569]}}, {"type": "Feature", "properties": {"norad_id": 34410, "name": "COSMOS 2251 DEB", "group": "cosmos-2251-debris", "lat": 44.40821211530669, "lon": 89.75364319325973, "alt_km": 496.039091826452, "timestamp": "2025-12-01T03:58:49.145371+00:00", "meta": {"OBJECT_NAME": "COSMOS 2251 DEB", "OBJECT_ID": "1993-036RB", "EPOCH": "2025-11-30T07:28:51.782016", "MEAN_MOTION": 15.17100409, "ECCENTRICITY": 0.00207026, "INCLINATION": 73.7371, "RA_OF_ASC_NODE": 288.1836, "ARG_OF_PERICENTER": 129.3825, "MEAN_ANOMALY": 20.6369, "EPHEMERIS_TYPE": 0, "CLASSIFICATION_TYPE": "U", "NORAD_CAT_ID": 34410, "ELEMENT_SET_NO": 999, "REV_AT_EPOCH": 89585, "BSTAR": 0.0026270905, "MEAN_MOTION_DOT": 0.00052703, "MEAN_MOTION_DDOT": 0, "GROUP": "cosmos-2251-debris"}, "tle": {"line1": "1 34410U 93036RB  25334.31171044  .00052703  00000+0  26271-2 0  9997", "line2": "2 34410  73.7371 288.1836 0020702 129.3825  20.6369 15.17100409895858"}}, "geometry": {"type": "Point", "coordinates": [89.75364319325973, 44.40821211530669]}}, {"type": "Feature", "properties": {"norad_id": 34412, "name": "COSMOS 2251 DEB", "group": "cosmos-2251-debris", "lat": 17.9754279317794, "lon": -8.266722025943961, "alt_km": 678.171503018485, "timestamp": "2025-12-01T03:58:49.145382+00:00", "meta": {"OBJECT_NAME": "COSMOS 2251 DEB", "OBJECT_ID": "1993-036RD", "EPOCH": "2025-11-30T11:18:06.386400", "MEAN_MOTION": 14.46961574, "ECCENTRICITY": 0.01871653, "INCLINATION": 73.9486, "RA_OF_ASC_NODE": 347.6794, "ARG_OF_PERICENTER": 85.7277, "MEAN_ANOMALY": 276.5243, "EPHEMERIS_TYPE": 0, "CLASSIFICATION_TYPE": "U", "NORAD_CAT_ID": 34412, "ELEMENT_SET_NO": 999, "REV_AT_EPOCH": 87473, "BSTAR": 0.00076862545, "MEAN_MOTION_DOT": 3.45e-05, "MEAN_MOTION_DDOT": 0, "GROUP": "cosmos-2251-debris"}, "tle": {"line1": "1 34412U 93036RD  25334.47090725  .00003450  00000+0  76863-3 0  9990", "line2": "2 34412  73.9486 347.6794 0187165  85.7277 276.5243 14.46961574874732"}}, "geometry": {"type": "Point", "coordinates": [-8.266722025943961, 17.9754279317794]}}, {"type": "Feature", "properties": {"norad_id": 34413, "name": "COSMOS 2251 DEB", "group": "cosmos-2251-debris", "lat": -3.0264083393532335, "lon": 106.7630602786216, "alt_km": 863.2420122993271, "timestamp": "2025-12-01T03:58:49.145392+00:00", "meta": {"OBJECT_NAME": "COSMOS 2251 DEB", "OBJECT_ID": "1993-036RE", "EPOCH": "2025-11-30T20:32:36.475008", "MEAN_MOTION": 14.28928867, "ECCENTRICITY": 0.0090562, "INCLINATION": 74.0307, "RA_OF_ASC_NODE": 286.458, "ARG_OF_PERICENTER": 5.217, "MEAN_ANOMALY": 24.413, "EPHEMERIS_TYPE": 0, "CLASSIFICATION_TYPE": "U", "NORAD_CAT_ID": 34413, "ELEMENT_SET_NO": 999, "REV_AT_EPOCH": 86961, "BSTAR": 0.0017827, "MEAN_MOTION_DOT": 4.684e-05, "MEAN_MOTION_DDOT": 0, "GROUP": "cosmos-2251-debris"}, "tle": {"line1": "1 34413U 93036RE  25334.85597772  .00004684  00000+0  17827-2 0  9991", "line2": "2 34413  74.0307 286.4580 0090562   5.2170  24.4130 14.28928867869617"}}, "geometry": {"type": "Point", "coordinates": [106.7630602786216, -3.0264083393532335]}}, {"type": "Feature", "properties": {"norad_id": 34420, "name": "COSMOS 2251 DEB", "group": "cosmos-2251-debris", "lat": 72.10465825388565, "lon": -171.18423674452495, "alt_km": 733.2025642420622, "timestamp": "2025-12-01T03:58:49.145402+00:00", "meta": {"OBJECT_NAME": "COSMOS 2251 DEB", "OBJECT_ID": "1993-036RM", "EPOCH": "2025-11-30T16:13:47.511840", "MEAN_MOTION": 14.68238241, "ECCENTRICITY": 0.0107035, "INCLINATION": 74.0316, "RA_OF_ASC_NODE": 127.2923, "ARG_OF_PERICENTER": 251.1837, "MEAN_ANOMALY": 124.1183, "EPHEMERIS_TYPE": 0, "CLASSIFICATION_TYPE": "U", "NORAD_CAT_ID": 34420, "ELEMENT_SET_NO": 999, "REV_AT_EPOCH": 89593, "BSTAR": 0.00023195, "MEAN_MOTION_DOT": 1.421e-05, "MEAN_MOTION_DDOT": 0, "GROUP": "cosmos-2251-debris"}, "tle": {"line1": "1 34420U 93036RM  25334.67624435  .00001421  00000+0  23195-3 0  9998", "line2": "2 34420  74.0316 127.2923 0107035 251.1837 124.1183 14.68238241895938"}}, "geometry": {"type": "Point", "coordinates": [-171.18423674452495, 72.10465825388565]}}, {"type": "Feature", "properties": {"norad_id": 34425, "name": "COSMOS 2251 DEB", "group": "cosmos-2251-debris", "lat": 62.36336645469158, "lon": 109.87831485880126, "alt_km": 693.7972242055521, "timestamp": "2025-12-01T03:58:49.145412+00:00", "meta": {"OBJECT_NAME": "COSMOS 2251 DEB", "OBJECT_ID": "1993-036RS", "EPOCH": "2025-11-30T14:32:05.218080", "MEAN_MOTION": 14.62005865, "ECCENTRICITY": 0.0025704, "INCLINATION": 74.0198, "RA_OF_ASC_NODE": 77.7702, "ARG_OF_PERICENTER": 206.6774, "MEAN_ANOMALY": 153.3072, "EPHEMERIS_TYPE": 0, "CLASSIFICATION_TYPE": "U", "NORAD_CAT_ID": 34425, "ELEMENT_SET_NO": 999, "REV_AT_EPOCH": 88563, "BSTAR": 0.00069315, "MEAN_MOTION_DOT": 3.463e-05, "MEAN_MOTION_DDOT": 0, "GROUP": "cosmos-2251-debris"}, "tle": {"line1": "1 34425U 93036RS  25334.60561595  .00003463  00000+0  69315-3 0  9995", "line2": "2 34425  74.0198  77.7702 0025704 206.6774 153.3072 14.62005865885637"}}, "geometry": {"type": "Point", "coordinates": [109.87831485880126, 62.36336645469158]}}, {"type": "Feature", "properties": {"norad_id": 34429, "name": "COSMOS 2251 DEB", "group": "cosmos-2251-debris", "lat": 5.163072184163663, "lon": 11.582899849562915, "alt_km": 462.2358780544091, "timestamp": "2025-12-01T03:58:49.145422+00:00", "meta": {"OBJECT_NAME": "COSMOS 2251 DEB", "OBJECT_ID": "1993-036RW", "EPOCH": "2025-11-30T16:32:38.157792", "MEAN_MOTION": 15.35947536, "ECCENTRICITY": 0.0005402, "INCLINATION": 73.9734, "RA_OF_ASC_NODE": 194.0982, "ARG_OF_PERICENTER": 43.1826, "MEAN_ANOMALY": 17.4611, "EPHEMERIS_TYPE": 0, "CLASSIFICATION_TYPE": "U", "NORAD_CAT_ID": 34429, "ELEMENT_SET_NO": 999, "REV_AT_EPOCH": 89263, "BSTAR": 0.0041762, "MEAN_MOTION_DOT": 0.00149147, "MEAN_MOTION_DDOT": 0, "GROUP": "cosmos-2251-debris"}, "tle": {"line1": "1 34429U 93036RW  25334.68933053  .00149147  00000+0  41762-2 0  9994", "line2": "2 34429  73.9734 194.0982 0005402  43.1826  17.4611 15.35947536892631"}}, "geometry": {"type": "Point", "coordinates": [11.582899849562915, 5.163072184163663]}}, {"type": "Feature", "properties": {"norad_id": 34430, "name": "COSMOS 2251 DEB", "group": "cosmos-2251-debris", "lat": 60.24599870240818, "lon": -5.266423756748682, "alt_km": 715.7019328569413, "timestamp": "2025-12-01T03:58:49.145432+00:00", "meta": {"OBJECT_NAME": "COSMOS 2251 DEB", "OBJECT_ID": "1993-036RX", "EPOCH": "2025-11-30T17:40:40.703808", "MEAN_MOTION": 14.39571149, "ECCENTRICITY": 0.0059795, "INCLINATION": 74.0511, "RA_OF_ASC_NODE": 325.5083, "ARG_OF_PERICENTER": 38.2613, "MEAN_ANOMALY": 322.2761, "EPHEMERIS_TYPE": 0, "CLASSIFICATION_TYPE": "U", "NORAD_CAT_ID": 34430, "ELEMENT_SET_NO": 999, "REV_AT_EPOCH": 87782, "BSTAR": 0.00044135, "MEAN_MOTION_DOT": 1.381e-05, "MEAN_MOTION_DDOT": 0, "GROUP": "cosmos-2251-debris"}, "tle": {"line1": "1 34430U 93036RX  25334.73658222  .00001381  00000+0  44135-3 0  9999", "line2": "2 34430  74.0511 325.5083 0059795  38.2613 322.2761 14.39571149877827"}}, "geometry": {"type": "Point", "coordinates": [-5.266423756748682, 60.24599870240818]}}, {"type": "Feature", "properties": {"norad_id": 34431, "name": "COSMOS 2251 DEB", "group": "cosmos-2251-debris", "lat": 54.06140705829481, "lon": -140.6553397492034, "alt_km": 820.4860667588528, "timestamp": "2025-12-01T03:58:49.145442+00:00", "meta": {"OBJECT_NAME": "COSMOS 2251 DEB", "OBJECT_ID": "1993-036RY", "EPOCH": "2025-11-29T16:25:07.919616", "MEAN_MOTION": 14.28714393, "ECCENTRICITY": 0.0068922, "INCLINATION": 74.0743, "RA_OF_ASC_NODE": 198.8295, "ARG_OF_PERICENTER": 188.0183, "MEAN_ANOMALY": 171.9872, "EPHEMERIS_TYPE": 0, "CLASSIFICATION_TYPE": "U", "NORAD_CAT_ID": 34431, "ELEMENT_SET_NO": 999, "REV_AT_EPOCH": 86956, "BSTAR": 0.00053450513, "MEAN_MOTION_DOT": 1.354e-05, "MEAN_MOTION_DDOT": 0, "GROUP": "cosmos-2251-debris"}, "tle": {"line1": "1 34431U 93036RY  25333.68411944  .00001354  00000+0  53451-3 0  9992", "line2": "2 34431  74.0743 198.8295 0068922 188.0183 171.9872 14.28714393869561"}}, "geometry": {"type": "Point", "coordinates": [-140.6553397492034, 54.06140705829481]}}]}